[{"OBJECT_NAME":"SL-16 R/B","OBJECT_ID":"1993-059B","EPOCH":"2026-03-21T23:16:28.972128","MEAN_MOTION":14.17234732,"ECCENTRICITY":0.0017819,"INCLINATION":70.993,"RA_OF_ASC_NODE":345.2321,"ARG_OF_PERICENTER":198.7387,"MEAN_ANOMALY":161.3083,"EPHEMERIS_TYPE":0,"CLASSIFICATION_TYPE":"U","NORAD_CAT_ID":22803,"ELEMENT_SET_NO":999,"REV_AT_EPOCH":68127,"BSTAR":0.00010612352,"MEAN_MOTION_DOT":1.67e-6,"MEAN_MOTION_DDOT":0},{"OBJECT_NAME":"ARIANE 40 R/B","OBJECT_ID":"1993-061H","EPOCH":"2026-03-21T22:03:11.966400","MEAN_MOTION":14.32866932,"ECCENTRICITY":0.0009687,"INCLINATION":98.4893,"RA_OF_ASC_NODE":149.5639,"ARG_OF_PERICENTER":244.5969,"MEAN_ANOMALY":115.4213,"EPHEMERIS_TYPE":0,"CLASSIFICATION_TYPE":"U","NORAD_CAT_ID":22830,"ELEMENT_SET_NO":999,"REV_AT_EPOCH":69585,"BSTAR":8.4567347e-5,"MEAN_MOTION_DOT":1.88e-6,"MEAN_MOTION_DDOT":0},{"OBJECT_NAME":"COSMOS 2278","OBJECT_ID":"1994-023A","EPOCH":"2026-03-21T21:41:12.214176","MEAN_MOTION":14.1437791,"ECCENTRICITY":0.00088555,"INCLINATION":71.0537,"RA_OF_ASC_NODE":149.5467,"ARG_OF_PERICENTER":352.9307,"MEAN_ANOMALY":7.169,"EPHEMERIS_TYPE":0,"CLASSIFICATION_TYPE":"U","NORAD_CAT_ID":23087,"ELEMENT_SET_NO":999,"REV_AT_EPOCH":64653,"BSTAR":-9.0999575e-5,"MEAN_MOTION_DOT":-2.21e-6,"MEAN_MOTION_DDOT":0},{"OBJECT_NAME":"SL-16 R/B","OBJECT_ID":"1994-023B","EPOCH":"2026-03-21T22:40:14.683296","MEAN_MOTION":14.15010823,"ECCENTRICITY":0.00054764,"INCLINATION":70.9998,"RA_OF_ASC_NODE":45.1483,"ARG_OF_PERICENTER":273.7058,"MEAN_ANOMALY":86.3438,"EPHEMERIS_TYPE":0,"CLASSIFICATION_TYPE":"U","NORAD_CAT_ID":23088,"ELEMENT_SET_NO":999,"REV_AT_EPOCH":64782,"BSTAR":9.8591768e-5,"MEAN_MOTION_DOT":1.43e-6,"MEAN_MOTION_DDOT":0},{"OBJECT_NAME":"SL-16 R/B","OBJECT_ID":"1994-074B","EPOCH":"2026-03-21T16:59:54.655872","MEAN_MOTION":14.7942114,"ECCENTRICITY":0.00067423,"INCLINATION":97.7092,"RA_OF_ASC_NODE":111.0386,"ARG_OF_PERICENTER":169.6423,"MEAN_ANOMALY":309.9711,"EPHEMERIS_TYPE":0,"CLASSIFICATION_TYPE":"U","NORAD_CAT_ID":23343,"ELEMENT_SET_NO":999,"REV_AT_EPOCH":68902,"BSTAR":6.7570117e-5,"MEAN_MOTION_DOT":4.55e-6,"MEAN_MOTION_DDOT":0},{"OBJECT_NAME":"SL-16 R/B","OBJECT_ID":"1994-077B","EPOCH":"2026-03-21T22:06:53.548704","MEAN_MOTION":14.15567338,"ECCENTRICITY":0.00023855,"INCLINATION":70.9846,"RA_OF_ASC_NODE":326.7576,"ARG_OF_PERICENTER":199.3073,"MEAN_ANOMALY":160.796,"EPHEMERIS_TYPE":0,"CLASSIFICATION_TYPE":"U","NORAD_CAT_ID":23405,"ELEMENT_SET_NO":999,"REV_AT_EPOCH":61796,"BSTAR":0.00015435958,"MEAN_MOTION_DOT":2.54e-6,"MEAN_MOTION_DDOT":0},{"OBJECT_NAME":"ARIANE 40+ R/B","OBJECT_ID":"1995-021B","EPOCH":"2026-03-21T22:20:13.194528","MEAN_MOTION":14.39780798,"ECCENTRICITY":0.00079753,"INCLINATION":98.4475,"RA_OF_ASC_NODE":152.2462,"ARG_OF_PERICENTER":104.6884,"MEAN_ANOMALY":68.8292,"EPHEMERIS_TYPE":0,"CLASSIFICATION_TYPE":"U","NORAD_CAT_ID":23561,"ELEMENT_SET_NO":999,"REV_AT_EPOCH":62100,"BSTAR":0.00010367707,"MEAN_MOTION_DOT":2.82e-6,"MEAN_MOTION_DDOT":0},{"OBJECT_NAME":"SL-16 R/B","OBJECT_ID":"1995-058B","EPOCH":"2026-03-21T15:30:44.974368","MEAN_MOTION":14.15500897,"ECCENTRICITY":0.00102121,"INCLINATION":71.022,"RA_OF_ASC_NODE":155.1543,"ARG_OF_PERICENTER":103.7162,"MEAN_ANOMALY":256.5098,"EPHEMERIS_TYPE":0,"CLASSIFICATION_TYPE":"U","NORAD_CAT_ID":23705,"ELEMENT_SET_NO":999,"REV_AT_EPOCH":56954,"BSTAR":5.328339e-6,"MEAN_MOTION_DOT":-3.7e-7,"MEAN_MOTION_DDOT":0},{"OBJECT_NAME":"SL-16 R/B","OBJECT_ID":"1996-051B","EPOCH":"2026-03-21T22:08:07.691136","MEAN_MOTION":14.12418977,"ECCENTRICITY":0.00140466,"INCLINATION":70.7596,"RA_OF_ASC_NODE":149.3489,"ARG_OF_PERICENTER":128.7093,"MEAN_ANOMALY":231.5285,"EPHEMERIS_TYPE":0,"CLASSIFICATION_TYPE":"U","NORAD_CAT_ID":24298,"ELEMENT_SET_NO":999,"REV_AT_EPOCH":52337,"BSTAR":8.2201617e-5,"MEAN_MOTION_DOT":1.03e-6,"MEAN_MOTION_DDOT":0},{"OBJECT_NAME":"ORBVIEW 2 (SEASTAR)","OBJECT_ID":"1997-037A","EPOCH":"2026-03-21T21:28:06.489984","MEAN_MOTION":14.35503155,"ECCENTRICITY":0.00027092,"INCLINATION":98.8587,"RA_OF_ASC_NODE":245.5309,"ARG_OF_PERICENTER":45.9731,"MEAN_ANOMALY":314.1677,"EPHEMERIS_TYPE":0,"CLASSIFICATION_TYPE":"U","NORAD_CAT_ID":24883,"ELEMENT_SET_NO":999,"REV_AT_EPOCH":51022,"BSTAR":0.0001053239,"MEAN_MOTION_DOT":2.56e-6,"MEAN_MOTION_DDOT":0},{"OBJECT_NAME":"SL-16 R/B","OBJECT_ID":"1998-043G","EPOCH":"2026-03-21T20:52:34.341888","MEAN_MOTION":14.26052392,"ECCENTRICITY":0.00095751,"INCLINATION":98.8276,"RA_OF_ASC_NODE":34.321,"ARG_OF_PERICENTER":345.507,"MEAN_ANOMALY":14.5834,"EPHEMERIS_TYPE":0,"CLASSIFICATION_TYPE":"U","NORAD_CAT_ID":25400,"ELEMENT_SET_NO":999,"REV_AT_EPOCH":44072,"BSTAR":4.4625309e-5,"MEAN_MOTION_DOT":6.1e-7,"MEAN_MOTION_DDOT":0},{"OBJECT_NAME":"SL-16 R/B","OBJECT_ID":"1998-045B","EPOCH":"2026-03-21T15:38:01.887072","MEAN_MOTION":14.16195511,"ECCENTRICITY":0.00075723,"INCLINATION":71.0119,"RA_OF_ASC_NODE":156.4209,"ARG_OF_PERICENTER":349.0401,"MEAN_ANOMALY":11.0556,"EPHEMERIS_TYPE":0,"CLASSIFICATION_TYPE":"U","NORAD_CAT_ID":25407,"ELEMENT_SET_NO":999,"REV_AT_EPOCH":42879,"BSTAR":1.5029356e-5,"MEAN_MOTION_DOT":-1.8e-7,"MEAN_MOTION_DDOT":0},{"OBJECT_NAME":"ISS (ZARYA)","OBJECT_ID":"1998-067A","EPOCH":"2026-03-21T20:09:59.780736","MEAN_MOTION":15.48434052,"ECCENTRICITY":0.00061781,"INCLINATION":51.6344,"RA_OF_ASC_NODE":12.294,"ARG_OF_PERICENTER":217.6452,"MEAN_ANOMALY":142.4104,"EPHEMERIS_TYPE":0,"CLASSIFICATION_TYPE":"U","NORAD_CAT_ID":25544,"ELEMENT_SET_NO":999,"REV_AT_EPOCH":55821,"BSTAR":0.00028909851,"MEAN_MOTION_DOT":0.00015204,"MEAN_MOTION_DDOT":0},{"OBJECT_NAME":"CZ-4B R/B","OBJECT_ID":"1999-025C","EPOCH":"2026-03-21T21:24:50.004288","MEAN_MOTION":14.18267625,"ECCENTRICITY":0.0036191,"INCLINATION":98.6601,"RA_OF_ASC_NODE":124.8834,"ARG_OF_PERICENTER":310.9169,"MEAN_ANOMALY":222.1494,"EPHEMERIS_TYPE":0,"CLASSIFICATION_TYPE":"U","NORAD_CAT_ID":25732,"ELEMENT_SET_NO":999,"REV_AT_EPOCH":38989,"BSTAR":4.2117594e-5,"MEAN_MOTION_DOT":4.4e-7,"MEAN_MOTION_DDOT":0},{"OBJECT_NAME":"OKEAN-O","OBJECT_ID":"1999-039A","EPOCH":"2026-03-21T21:16:15.750624","MEAN_MOTION":14.80354186,"ECCENTRICITY":9.449e-5,"INCLINATION":97.9416,"RA_OF_ASC_NODE":140.6523,"ARG_OF_PERICENTER":79.53,"MEAN_ANOMALY":280.6019,"EPHEMERIS_TYPE":0,"CLASSIFICATION_TYPE":"U","NORAD_CAT_ID":25860,"ELEMENT_SET_NO":999,"REV_AT_EPOCH":43619,"BSTAR":9.4490687e-5,"MEAN_MOTION_DOT":6.69e-6,"MEAN_MOTION_DDOT":0},{"OBJECT_NAME":"SL-16 R/B","OBJECT_ID":"1999-039B","EPOCH":"2026-03-21T22:07:59.568672","MEAN_MOTION":14.81747545,"ECCENTRICITY":0.00140341,"INCLINATION":97.994,"RA_OF_ASC_NODE":139.9992,"ARG_OF_PERICENTER":213.289,"MEAN_ANOMALY":146.7442,"EPHEMERIS_TYPE":0,"CLASSIFICATION_TYPE":"U","NORAD_CAT_ID":25861,"ELEMENT_SET_NO":999,"REV_AT_EPOCH":43867,"BSTAR":7.7346876e-5,"MEAN_MOTION_DOT":5.57e-6,"MEAN_MOTION_DDOT":0},{"OBJECT_NAME":"DELTA 2 R/B","OBJECT_ID":"1999-041E","EPOCH":"2026-03-21T21:37:34.755744","MEAN_MOTION":14.1186666,"ECCENTRICITY":0.05026144,"INCLINATION":51.7601,"RA_OF_ASC_NODE":252.5002,"ARG_OF_PERICENTER":24.4522,"MEAN_ANOMALY":337.9385,"EPHEMERIS_TYPE":0,"CLASSIFICATION_TYPE":"U","NORAD_CAT_ID":25876,"ELEMENT_SET_NO":999,"REV_AT_EPOCH":36475,"BSTAR":0.00010115702,"MEAN_MOTION_DOT":3.82e-6,"MEAN_MOTION_DDOT":0}]
