SL-16 R/B               
1 22803U 93059B   26080.96977977  .00000167  00000+0  10612-3 0  9994
2 22803  70.9930 345.2321 0017819 198.7387 161.3083 14.17234732681274
ARIANE 40 R/B           
1 22830U 93061H   26080.91888850  .00000188  00000+0  84567-4 0  9997
2 22830  98.4893 149.5639 0009687 244.5969 115.4213 14.32866932695858
COSMOS 2278             
1 23087U 94023A   26080.90361359 -.00000221  00000+0 -91000-4 0  9990
2 23087  71.0537 149.5467 0008855 352.9307   7.1690 14.14377910646530
SL-16 R/B               
1 23088U 94023B   26080.94461439  .00000143  00000+0  98592-4 0  9999
2 23088  70.9998  45.1483 0005476 273.7058  86.3438 14.15010823647828
SL-16 R/B               
1 23343U 94074B   26080.70827148  .00000455  00000+0  67570-4 0  9994
2 23343  97.7092 111.0386 0006742 169.6423 309.9711 14.79421140689029
SL-16 R/B               
1 23405U 94077B   26080.92145311  .00000254  00000+0  15436-3 0  9995
2 23405  70.9846 326.7576 0002385 199.3073 160.7960 14.15567338617967
ARIANE 40+ R/B          
1 23561U 95021B   26080.93070827  .00000282  00000+0  10368-3 0  9998
2 23561  98.4475 152.2462 0007975 104.6884  68.8292 14.39780798621007
SL-16 R/B               
1 23705U 95058B   26080.64635387 -.00000037  00000+0  53283-5 0  9998
2 23705  71.0220 155.1543 0010212 103.7162 256.5098 14.15500897569545
SL-16 R/B               
1 24298U 96051B   26080.92231124  .00000103  00000+0  82202-4 0  9997
2 24298  70.7596 149.3489 0014046 128.7093 231.5285 14.12418977523374
ORBVIEW 2 (SEASTAR)     
1 24883U 97037A   26080.89451956  .00000256  00000+0  10532-3 0  9990
2 24883  98.8587 245.5309 0002709  45.9731 314.1677 14.35503155510228
SL-16 R/B               
1 25400U 98043G   26080.86984192  .00000061  00000+0  44625-4 0  9999
2 25400  98.8276  34.3210 0009575 345.5070  14.5834 14.26052392440722
SL-16 R/B               
1 25407U 98045B   26080.65141073 -.00000018  00000+0  15029-4 0  9997
2 25407  71.0119 156.4209 0007572 349.0401  11.0556 14.16195511428790
ISS (ZARYA)             
1 25544U 98067A   26080.84027524  .00015204  00000+0  28910-3 0  9992
2 25544  51.6344  12.2940 0006178 217.6452 142.4104 15.48434052558215
CZ-4B R/B               
1 25732U 99025C   26080.89224542  .00000044  00000+0  42118-4 0  9993
2 25732  98.6601 124.8834 0036191 310.9169 222.1494 14.18267625389893
OKEAN-O                 
1 25860U 99039A   26080.88629341  .00000669  00000+0  94491-4 0  9999
2 25860  97.9416 140.6523 0000944  79.5300 280.6019 14.80354186436190
SL-16 R/B               
1 25861U 99039B   26080.92221723  .00000557  00000+0  77347-4 0  9994
2 25861  97.9940 139.9992 0014034 213.2890 146.7442 14.81747545438673
DELTA 2 R/B             
1 25876U 99041E   26080.90109671  .00000382  00000+0  10116-3 0  9994
2 25876  51.7601 252.5002 0502614  24.4522 337.9385 14.11866660364755
